UNKNOWN                 
1 83903U          25359.90072082  .00000121  00000+0  00000+0 0  9997
2 83903   6.1512 290.5041 0123617 251.9910 284.4053  0.99112284 43793
UNKNOWN                 
1 83934U          25344.85026985 -.00000109  00000+0  00000+0 0  9997
2 83934   5.7866 297.5269 0232633 273.3756 209.9168  1.02662907 45268
UNKNOWN                 
1 83970U          25364.26825452  .00010640  00000+0  11418-1 0  9997
2 83970  18.2703 199.2860 5069040 181.3191 176.5732  5.32279748197143
UNKNOWN                 
1 84006U          25355.89536723  .00000027  00000+0  00000+0 0  9998
2 84006  22.4417 175.6731 6151284  63.9416 345.8815  2.16233550 84425
UNKNOWN                 
1 84188U          26001.72009142  .00720098  00000+0  30709+0 0  9996
2 84188  65.1464 240.7074 3692402  16.4828 352.9291  7.74668752 42791
UNKNOWN                 
1 84232U          26002.30485714  .00020254  00000+0  16622-1 0  9991
2 84232  20.3093 262.3374 6556853  85.7487 341.0511  3.17771128105347
UNKNOWN                 
1 84236U          25361.45501203  .00000387  00000+0  32331-2 0  9991
2 84236   9.4326 328.5336 6894476 107.3134 334.0629  2.62542961114361
UNKNOWN                 
1 84292U          25353.43049061  .00002611  00000+0  13865-2 0  9994
2 84292  23.8359 151.0737 4565693 256.1347  50.5562  6.21548976228482
UNKNOWN                 
1 84406U          26002.66028302  .00001194  00000+0  64536-2 0  9999
2 84406 101.7163 152.0732 0041340 352.0148  37.5934 12.67372144 51945
UNKNOWN                 
1 84407U          25364.91732424 -.00000178  00000+0 -11829-1 0  9994
2 84407  19.4743 317.1469 7202613  71.5981 349.8455  2.05772993 76247
UNKNOWN                 
1 84575U          25362.76394893  .00000026  00000+0 -22230-2 0  9995
2 84575  18.0986 153.2515 7101509  32.2046 355.9427  2.19885453 65815
UNKNOWN                 
1 84932U          26002.49673853  .00001445  00000+0  11263-1 0  9998
2 84932   2.0350 231.9884 6577464  78.6339  59.5069  2.99992040132406
