CCSDS_OMM_VERS = 2.0
CREATION_DATE  = 
ORIGINATOR     = 

OBJECT_NAME    = UNKNOWN
OBJECT_ID      = 
CENTER_NAME    = EARTH
REF_FRAME      = TEME
TIME_SYSTEM    = UTC
MEAN_ELEMENT_THEORY = SGP/SGP4

EPOCH          = 2025-12-25T21:37:02.278848
MEAN_MOTION    = 0.99112284
ECCENTRICITY   = .0123617
INCLINATION    = 6.1512
RA_OF_ASC_NODE = 290.5041
ARG_OF_PERICENTER = 251.9910
MEAN_ANOMALY   = 284.4053

EPHEMERIS_TYPE = 0
CLASSIFICATION_TYPE = U
NORAD_CAT_ID   = 83903
ELEMENT_SET_NO = 999
REV_AT_EPOCH   = 4379
BSTAR          = 0
MEAN_MOTION_DOT = .121E-5
MEAN_MOTION_DDOT = 0

CCSDS_OMM_VERS = 2.0
CREATION_DATE  = 
ORIGINATOR     = 

OBJECT_NAME    = UNKNOWN
OBJECT_ID      = 
CENTER_NAME    = EARTH
REF_FRAME      = TEME
TIME_SYSTEM    = UTC
MEAN_ELEMENT_THEORY = SGP/SGP4

EPOCH          = 2025-12-10T20:24:23.315040
MEAN_MOTION    = 1.02662907
ECCENTRICITY   = .0232633
INCLINATION    = 5.7866
RA_OF_ASC_NODE = 297.5269
ARG_OF_PERICENTER = 273.3756
MEAN_ANOMALY   = 209.9168

EPHEMERIS_TYPE = 0
CLASSIFICATION_TYPE = U
NORAD_CAT_ID   = 83934
ELEMENT_SET_NO = 999
REV_AT_EPOCH   = 4526
BSTAR          = 0
MEAN_MOTION_DOT = -.109E-5
MEAN_MOTION_DDOT = 0

CCSDS_OMM_VERS = 2.0
CREATION_DATE  = 
ORIGINATOR     = 

OBJECT_NAME    = UNKNOWN
OBJECT_ID      = 
CENTER_NAME    = EARTH
REF_FRAME      = TEME
TIME_SYSTEM    = UTC
MEAN_ELEMENT_THEORY = SGP/SGP4

EPOCH          = 2025-12-30T06:26:17.190528
MEAN_MOTION    = 5.32279748
ECCENTRICITY   = .506904
INCLINATION    = 18.2703
RA_OF_ASC_NODE = 199.2860
ARG_OF_PERICENTER = 181.3191
MEAN_ANOMALY   = 176.5732

EPHEMERIS_TYPE = 0
CLASSIFICATION_TYPE = U
NORAD_CAT_ID   = 83970
ELEMENT_SET_NO = 999
REV_AT_EPOCH   = 19714
BSTAR          = .11418E-1
MEAN_MOTION_DOT = .1064E-3
MEAN_MOTION_DDOT = 0

CCSDS_OMM_VERS = 2.0
CREATION_DATE  = 
ORIGINATOR     = 

OBJECT_NAME    = UNKNOWN
OBJECT_ID      = 
CENTER_NAME    = EARTH
REF_FRAME      = TEME
TIME_SYSTEM    = UTC
MEAN_ELEMENT_THEORY = SGP/SGP4

EPOCH          = 2025-12-21T21:29:19.728672
MEAN_MOTION    = 2.16233550
ECCENTRICITY   = .6151284
INCLINATION    = 22.4417
RA_OF_ASC_NODE = 175.6731
ARG_OF_PERICENTER = 63.9416
MEAN_ANOMALY   = 345.8815

EPHEMERIS_TYPE = 0
CLASSIFICATION_TYPE = U
NORAD_CAT_ID   = 84006
ELEMENT_SET_NO = 999
REV_AT_EPOCH   = 8442
BSTAR          = 0
MEAN_MOTION_DOT = .27E-6
MEAN_MOTION_DDOT = 0

CCSDS_OMM_VERS = 2.0
CREATION_DATE  = 
ORIGINATOR     = 

OBJECT_NAME    = UNKNOWN
OBJECT_ID      = 
CENTER_NAME    = EARTH
REF_FRAME      = TEME
TIME_SYSTEM    = UTC
MEAN_ELEMENT_THEORY = SGP/SGP4

EPOCH          = 2026-01-01T17:16:55.898688
MEAN_MOTION    = 7.74668752
ECCENTRICITY   = .3692402
INCLINATION    = 65.1464
RA_OF_ASC_NODE = 240.7074
ARG_OF_PERICENTER = 16.4828
MEAN_ANOMALY   = 352.9291

EPHEMERIS_TYPE = 0
CLASSIFICATION_TYPE = U
NORAD_CAT_ID   = 84188
ELEMENT_SET_NO = 999
REV_AT_EPOCH   = 4279
BSTAR          = .30709E+0
MEAN_MOTION_DOT = .720098E-2
MEAN_MOTION_DDOT = 0

CCSDS_OMM_VERS = 2.0
CREATION_DATE  = 
ORIGINATOR     = 

OBJECT_NAME    = UNKNOWN
OBJECT_ID      = 
CENTER_NAME    = EARTH
REF_FRAME      = TEME
TIME_SYSTEM    = UTC
MEAN_ELEMENT_THEORY = SGP/SGP4

EPOCH          = 2026-01-02T07:18:59.656896
MEAN_MOTION    = 3.17771128
ECCENTRICITY   = .6556853
INCLINATION    = 20.3093
RA_OF_ASC_NODE = 262.3374
ARG_OF_PERICENTER = 85.7487
MEAN_ANOMALY   = 341.0511

EPHEMERIS_TYPE = 0
CLASSIFICATION_TYPE = U
NORAD_CAT_ID   = 84232
ELEMENT_SET_NO = 999
REV_AT_EPOCH   = 10534
BSTAR          = .16622E-1
MEAN_MOTION_DOT = .20254E-3
MEAN_MOTION_DDOT = 0

CCSDS_OMM_VERS = 2.0
CREATION_DATE  = 
ORIGINATOR     = 

OBJECT_NAME    = UNKNOWN
OBJECT_ID      = 
CENTER_NAME    = EARTH
REF_FRAME      = TEME
TIME_SYSTEM    = UTC
MEAN_ELEMENT_THEORY = SGP/SGP4

EPOCH          = 2025-12-27T10:55:13.039392
MEAN_MOTION    = 2.62542961
ECCENTRICITY   = .6894476
INCLINATION    = 9.4326
RA_OF_ASC_NODE = 328.5336
ARG_OF_PERICENTER = 107.3134
MEAN_ANOMALY   = 334.0629

EPHEMERIS_TYPE = 0
CLASSIFICATION_TYPE = U
NORAD_CAT_ID   = 84236
ELEMENT_SET_NO = 999
REV_AT_EPOCH   = 11436
BSTAR          = .32331E-2
MEAN_MOTION_DOT = .387E-5
MEAN_MOTION_DDOT = 0

CCSDS_OMM_VERS = 2.0
CREATION_DATE  = 
ORIGINATOR     = 

OBJECT_NAME    = UNKNOWN
OBJECT_ID      = 
CENTER_NAME    = EARTH
REF_FRAME      = TEME
TIME_SYSTEM    = UTC
MEAN_ELEMENT_THEORY = SGP/SGP4

EPOCH          = 2025-12-19T10:19:54.388704
MEAN_MOTION    = 6.21548976
ECCENTRICITY   = .4565693
INCLINATION    = 23.8359
RA_OF_ASC_NODE = 151.0737
ARG_OF_PERICENTER = 256.1347
MEAN_ANOMALY   = 50.5562

EPHEMERIS_TYPE = 0
CLASSIFICATION_TYPE = U
NORAD_CAT_ID   = 84292
ELEMENT_SET_NO = 999
REV_AT_EPOCH   = 22848
BSTAR          = .13865E-2
MEAN_MOTION_DOT = .2611E-4
MEAN_MOTION_DDOT = 0

CCSDS_OMM_VERS = 2.0
CREATION_DATE  = 
ORIGINATOR     = 

OBJECT_NAME    = UNKNOWN
OBJECT_ID      = 
CENTER_NAME    = EARTH
REF_FRAME      = TEME
TIME_SYSTEM    = UTC
MEAN_ELEMENT_THEORY = SGP/SGP4

EPOCH          = 2026-01-02T15:50:48.452928
MEAN_MOTION    = 12.67372144
ECCENTRICITY   = .004134
INCLINATION    = 101.7163
RA_OF_ASC_NODE = 152.0732
ARG_OF_PERICENTER = 352.0148
MEAN_ANOMALY   = 37.5934

EPHEMERIS_TYPE = 0
CLASSIFICATION_TYPE = U
NORAD_CAT_ID   = 84406
ELEMENT_SET_NO = 999
REV_AT_EPOCH   = 5194
BSTAR          = .64536E-2
MEAN_MOTION_DOT = .1194E-4
MEAN_MOTION_DDOT = 0

CCSDS_OMM_VERS = 2.0
CREATION_DATE  = 
ORIGINATOR     = 

OBJECT_NAME    = UNKNOWN
OBJECT_ID      = 
CENTER_NAME    = EARTH
REF_FRAME      = TEME
TIME_SYSTEM    = UTC
MEAN_ELEMENT_THEORY = SGP/SGP4

EPOCH          = 2025-12-30T22:00:56.814336
MEAN_MOTION    = 2.05772993
ECCENTRICITY   = .7202613
INCLINATION    = 19.4743
RA_OF_ASC_NODE = 317.1469
ARG_OF_PERICENTER = 71.5981
MEAN_ANOMALY   = 349.8455

EPHEMERIS_TYPE = 0
CLASSIFICATION_TYPE = U
NORAD_CAT_ID   = 84407
ELEMENT_SET_NO = 999
REV_AT_EPOCH   = 7624
BSTAR          = -.11829E-1
MEAN_MOTION_DOT = -.178E-5
MEAN_MOTION_DDOT = 0

CCSDS_OMM_VERS = 2.0
CREATION_DATE  = 
ORIGINATOR     = 

OBJECT_NAME    = UNKNOWN
OBJECT_ID      = 
CENTER_NAME    = EARTH
REF_FRAME      = TEME
TIME_SYSTEM    = UTC
MEAN_ELEMENT_THEORY = SGP/SGP4

EPOCH          = 2025-12-28T18:20:05.187552
MEAN_MOTION    = 2.19885453
ECCENTRICITY   = .7101509
INCLINATION    = 18.0986
RA_OF_ASC_NODE = 153.2515
ARG_OF_PERICENTER = 32.2046
MEAN_ANOMALY   = 355.9427

EPHEMERIS_TYPE = 0
CLASSIFICATION_TYPE = U
NORAD_CAT_ID   = 84575
ELEMENT_SET_NO = 999
REV_AT_EPOCH   = 6581
BSTAR          = -.2223E-2
MEAN_MOTION_DOT = .26E-6
MEAN_MOTION_DDOT = 0

CCSDS_OMM_VERS = 2.0
CREATION_DATE  = 
ORIGINATOR     = 

OBJECT_NAME    = UNKNOWN
OBJECT_ID      = 
CENTER_NAME    = EARTH
REF_FRAME      = TEME
TIME_SYSTEM    = UTC
MEAN_ELEMENT_THEORY = SGP/SGP4

EPOCH          = 2026-01-02T11:55:18.208992
MEAN_MOTION    = 2.99992040
ECCENTRICITY   = .6577464
INCLINATION    = 2.0350
RA_OF_ASC_NODE = 231.9884
ARG_OF_PERICENTER = 78.6339
MEAN_ANOMALY   = 59.5069

EPHEMERIS_TYPE = 0
CLASSIFICATION_TYPE = U
NORAD_CAT_ID   = 84932
ELEMENT_SET_NO = 999
REV_AT_EPOCH   = 13240
BSTAR          = .11263E-1
MEAN_MOTION_DOT = .1445E-4
MEAN_MOTION_DDOT = 0

